[{"OBJECT_NAME":"COSMO-SKYMED 3","OBJECT_ID":"2008-054A","EPOCH":"2026-03-09T22:03:15.183936","MEAN_MOTION":15.06259488,"ECCENTRICITY":0.00143526,"INCLINATION":97.8419,"RA_OF_ASC_NODE":285.8111,"ARG_OF_PERICENTER":240.3641,"MEAN_ANOMALY":119.6157,"EPHEMERIS_TYPE":0,"CLASSIFICATION_TYPE":"U","NORAD_CAT_ID":33412,"ELEMENT_SET_NO":999,"REV_AT_EPOCH":94199,"BSTAR":0.00061875413,"MEAN_MOTION_DOT":9.042e-5,"MEAN_MOTION_DDOT":0},{"OBJECT_NAME":"STARLINK-4515","OBJECT_ID":"2022-097K","EPOCH":"2026-03-09T10:23:06.023904","MEAN_MOTION":15.0883713,"ECCENTRICITY":0.00012214,"INCLINATION":53.2162,"RA_OF_ASC_NODE":125.2728,"ARG_OF_PERICENTER":96.2297,"MEAN_ANOMALY":263.8835,"EPHEMERIS_TYPE":0,"CLASSIFICATION_TYPE":"U","NORAD_CAT_ID":53397,"ELEMENT_SET_NO":999,"REV_AT_EPOCH":19847,"BSTAR":-1.2077157e-5,"MEAN_MOTION_DOT":-4.8e-6,"MEAN_MOTION_DDOT":0}]
